[
    {
        "Altitude(m)": 554142.8881769932,
        "Argument of Periapsis(deg)": 0.019868973332140504,
        "Eccentricity": 0.0,
        "Inclination(deg)": 53.0,
        "Latitude(deg)": 23.37350086668024,
        "Longitude(deg)": 78.72109862905835,
        "Mean Anomaly(deg)": 150.27487860273277,
        "RAAN(deg)": 19.97043010558405,
        "Satellite Name": "Starlink Shell 1 95",
        "Satellite Number": 95,
        "Semi-Major Axis(m)": 6931778.249405717,
        "Time(s)": 570
    },
    {
        "Altitude(m)": 554090.9711350049,
        "Argument of Periapsis(deg)": 0.02021755181165174,
        "Eccentricity": 0.0,
        "Inclination(deg)": 53.0,
        "Latitude(deg)": 22.8966323145784,
        "Longitude(deg)": 79.12491178132156,
        "Mean Anomaly(deg)": 150.9017098062895,
        "RAAN(deg)": 19.969911335506577,
        "Satellite Name": "Starlink Shell 1 95",
        "Satellite Number": 95,
        "Semi-Major Axis(m)": 6931778.249405717,
        "Time(s)": 580
    },
    {
        "Altitude(m)": 554040.8775502307,
        "Argument of Periapsis(deg)": 0.020566130291162974,
        "Eccentricity": 0.0,
        "Inclination(deg)": 53.0,
        "Latitude(deg)": 22.418498914412545,
        "Longitude(deg)": 79.52562204130558,
        "Mean Anomaly(deg)": 151.5285410098462,
        "RAAN(deg)": 19.969392565429107,
        "Satellite Name": "Starlink Shell 1 95",
        "Satellite Number": 95,
        "Semi-Major Axis(m)": 6931778.249405717,
        "Time(s)": 590
    },
    {
        "Altitude(m)": 553992.6523746969,
        "Argument of Periapsis(deg)": 0.020914708770674213,
        "Eccentricity": 0.0,
        "Inclination(deg)": 53.0,
        "Latitude(deg)": 21.939138072733027,
        "Longitude(deg)": 79.92331428239115,
        "Mean Anomaly(deg)": 152.15537221340293,
        "RAAN(deg)": 19.96887379535163,
        "Satellite Name": "Starlink Shell 1 95",
        "Satellite Number": 95,
        "Semi-Major Axis(m)": 6931778.249405717,
        "Time(s)": 600
    },
    {
        "Altitude(m)": 553946.3397869873,
        "Argument of Periapsis(deg)": 0.021263287250185448,
        "Eccentricity": 0.0,
        "Inclination(deg)": 53.0,
        "Latitude(deg)": 21.458586482154026,
        "Longitude(deg)": 80.31807220612724,
        "Mean Anomaly(deg)": 152.78220341695962,
        "RAAN(deg)": 19.968355025274157,
        "Satellite Name": "Starlink Shell 1 95",
        "Satellite Number": 95,
        "Semi-Major Axis(m)": 6931778.249405717,
        "Time(s)": 610
    },
    {
        "Altitude(m)": 553901.9831679875,
        "Argument of Periapsis(deg)": 0.021611865729696686,
        "Eccentricity": 0.0,
        "Inclination(deg)": 53.0,
        "Latitude(deg)": 20.976880144891076,
        "Longitude(deg)": 80.70997886823608,
        "Mean Anomaly(deg)": 153.40903462051637,
        "RAAN(deg)": 19.967836255196683,
        "Satellite Name": "Starlink Shell 1 95",
        "Satellite Number": 95,
        "Semi-Major Axis(m)": 6931778.249405717,
        "Time(s)": 620
    },
    {
        "Altitude(m)": 553859.6250770024,
        "Argument of Periapsis(deg)": 0.02196044420920792,
        "Eccentricity": 0.0,
        "Inclination(deg)": 53.0,
        "Latitude(deg)": 20.49405439578605,
        "Longitude(deg)": 81.09911552445807,
        "Mean Anomaly(deg)": 154.03586582407306,
        "RAAN(deg)": 19.967317485119214,
        "Satellite Name": "Starlink Shell 1 95",
        "Satellite Number": 95,
        "Semi-Major Axis(m)": 6931778.249405717,
        "Time(s)": 630
    },
    {
        "Altitude(m)": 553819.3072282469,
        "Argument of Periapsis(deg)": 0.02230902268871916,
        "Eccentricity": 0.0,
        "Inclination(deg)": 53.0,
        "Latitude(deg)": 20.01014392482884,
        "Longitude(deg)": 81.48556299857255,
        "Mean Anomaly(deg)": 154.66269702762978,
        "RAAN(deg)": 19.96679871504174,
        "Satellite Name": "Starlink Shell 1 95",
        "Satellite Number": 95,
        "Semi-Major Axis(m)": 6931778.249405717,
        "Time(s)": 640
    },
    {
        "Altitude(m)": 553781.0704677296,
        "Argument of Periapsis(deg)": 0.022657601168230398,
        "Eccentricity": 0.0,
        "Inclination(deg)": 53.0,
        "Latitude(deg)": 19.525182799180968,
        "Longitude(deg)": 81.86940052959545,
        "Mean Anomaly(deg)": 155.28952823118647,
        "RAAN(deg)": 19.966279944964267,
        "Satellite Name": "Starlink Shell 1 95",
        "Satellite Number": 95,
        "Semi-Major Axis(m)": 6931778.249405717,
        "Time(s)": 650
    },
    {
        "Altitude(m)": 553744.9547505439,
        "Argument of Periapsis(deg)": 0.023006179647741636,
        "Eccentricity": 0.0,
        "Inclination(deg)": 53.0,
        "Latitude(deg)": 19.03920448471235,
        "Longitude(deg)": 82.25070630050459,
        "Mean Anomaly(deg)": 155.9163594347432,
        "RAAN(deg)": 19.965761174886794,
        "Satellite Name": "Starlink Shell 1 95",
        "Satellite Number": 95,
        "Semi-Major Axis(m)": 6931778.249405717,
        "Time(s)": 660
    },
    {
        "Altitude(m)": 553710.9991185515,
        "Argument of Periapsis(deg)": 0.023354758127252868,
        "Eccentricity": 0.0,
        "Inclination(deg)": 53.0,
        "Latitude(deg)": 18.552241867059983,
        "Longitude(deg)": 82.62955796744866,
        "Mean Anomaly(deg)": 156.54319063829993,
        "RAAN(deg)": 19.965242404809324,
        "Satellite Name": "Starlink Shell 1 95",
        "Satellite Number": 95,
        "Semi-Major Axis(m)": 6931778.249405717,
        "Time(s)": 670
    },
    {
        "Altitude(m)": 553679.2416785216,
        "Argument of Periapsis(deg)": 0.023703336606764106,
        "Eccentricity": 0.0,
        "Inclination(deg)": 53.0,
        "Latitude(deg)": 18.06432727221718,
        "Longitude(deg)": 83.00603167650128,
        "Mean Anomaly(deg)": 157.17002184185665,
        "RAAN(deg)": 19.96472363473185,
        "Satellite Name": "Starlink Shell 1 95",
        "Satellite Number": 95,
        "Semi-Major Axis(m)": 6931778.249405717,
        "Time(s)": 680
    },
    {
        "Altitude(m)": 553649.7195806891,
        "Argument of Periapsis(deg)": 0.024051915086275345,
        "Eccentricity": 0.0,
        "Inclination(deg)": 53.0,
        "Latitude(deg)": 17.575492486666036,
        "Longitude(deg)": 83.38020259364765,
        "Mean Anomaly(deg)": 157.79685304541334,
        "RAAN(deg)": 19.964204864654377,
        "Satellite Name": "Starlink Shell 1 95",
        "Satellite Number": 95,
        "Semi-Major Axis(m)": 6931778.249405717,
        "Time(s)": 690
    },
    {
        "Altitude(m)": 553622.468997786,
        "Argument of Periapsis(deg)": 0.024400493565786583,
        "Eccentricity": 0.0,
        "Inclination(deg)": 53.0,
        "Latitude(deg)": 17.085768777063056,
        "Longitude(deg)": 83.75214543507535,
        "Mean Anomaly(deg)": 158.42368424897006,
        "RAAN(deg)": 19.963686094576904,
        "Satellite Name": "Starlink Shell 1 95",
        "Satellite Number": 95,
        "Semi-Major Axis(m)": 6931778.249405717,
        "Time(s)": 700
    },
    {
        "Altitude(m)": 553597.5251044995,
        "Argument of Periapsis(deg)": 0.024749072045297815,
        "Eccentricity": 0.0,
        "Inclination(deg)": 53.0,
        "Latitude(deg)": 16.595186909488362,
        "Longitude(deg)": 84.12193348484496,
        "Mean Anomaly(deg)": 159.05051545252678,
        "RAAN(deg)": 19.96316732449943,
        "Satellite Name": "Starlink Shell 1 95",
        "Satellite Number": 95,
        "Semi-Major Axis(m)": 6931778.249405717,
        "Time(s)": 710
    },
    {
        "Altitude(m)": 553574.9220574454,
        "Argument of Periapsis(deg)": 0.025097650524809053,
        "Eccentricity": 0.0,
        "Inclination(deg)": 53.0,
        "Latitude(deg)": 16.103777168271883,
        "Longitude(deg)": 84.48963912564462,
        "Mean Anomaly(deg)": 159.67734665608347,
        "RAAN(deg)": 19.962648554421957,
        "Satellite Name": "Starlink Shell 1 95",
        "Satellite Number": 95,
        "Semi-Major Axis(m)": 6931778.249405717,
        "Time(s)": 720
    },
    {
        "Altitude(m)": 553554.6929755906,
        "Argument of Periapsis(deg)": 0.02544622900432029,
        "Eccentricity": 0.0,
        "Inclination(deg)": 53.0,
        "Latitude(deg)": 15.611569374406917,
        "Longitude(deg)": 84.8553343697124,
        "Mean Anomaly(deg)": 160.3041778596402,
        "RAAN(deg)": 19.962129784344487,
        "Satellite Name": "Starlink Shell 1 95",
        "Satellite Number": 95,
        "Semi-Major Axis(m)": 6931778.249405717,
        "Time(s)": 730
    },
    {
        "Altitude(m)": 553536.8699211995,
        "Argument of Periapsis(deg)": 0.02579480748383153,
        "Eccentricity": 0.0,
        "Inclination(deg)": 53.0,
        "Latitude(deg)": 15.11859290356364,
        "Longitude(deg)": 85.21908987701606,
        "Mean Anomaly(deg)": 160.93100906319694,
        "RAAN(deg)": 19.961611014267014,
        "Satellite Name": "Starlink Shell 1 95",
        "Satellite Number": 95,
        "Semi-Major Axis(m)": 6931778.249405717,
        "Time(s)": 740
    },
    {
        "Altitude(m)": 553521.4838812643,
        "Argument of Periapsis(deg)": 0.026143385963342765,
        "Eccentricity": 0.0,
        "Inclination(deg)": 53.0,
        "Latitude(deg)": 14.624876703714843,
        "Longitude(deg)": 85.58097548640538,
        "Mean Anomaly(deg)": 161.55784026675366,
        "RAAN(deg)": 19.961092244189537,
        "Satellite Name": "Starlink Shell 1 95",
        "Satellite Number": 95,
        "Semi-Major Axis(m)": 6931778.249405717,
        "Time(s)": 750
    }
]